HELIOS 1B               
1 25977U 99064A   21045.18789528  .00000050  00000-0  13336-4 0  9993
2 25977  98.3038 214.9195 0000266   2.3549 357.7664 14.82531477142233
TERRA                   
1 25994U 99068A   21044.90772558  .00000060  00000-0  23349-4 0  9996
2 25994  98.1886 121.5290 0001356  94.2207  16.6883 14.57126357125359
SL-16 R/B               
1 26070U 00006B   21044.92600571 -.00000132  00000-0 -43003-4 0  9994
2 26070  71.0013  25.8237 0014540 121.4001 238.8546 14.15467633 86807
MTI                     
1 26102U 00014A   21045.13963933  .00005595  00000-0  74037-4 0  9994
2 26102  97.4784 305.3282 0008393  61.6979 298.5122 15.58732992162128
TITAN 4B R/B            
1 26474U 00047B   21045.21120220  .00000134  00000-0  22466-4 0  9998
2 26474  67.9940 130.1848 0060807 289.9206  69.5392 14.96082122115480
ENVISAT                 
1 27386U 02009A   21045.00359781  .00000014  00000-0  18188-4 0  9997
2 27386  98.1436  45.3995 0001191  91.2686 289.2281 14.38012432993335
IDEFIX & ARIANE 42P R/B 
1 27422U 02021B   21044.90150056 -.00000013  00000-0  11379-4 0  9999
2 27422  98.3869   2.3941 0011183 235.3994 124.6135 14.29307948979655
AQUA                    
1 27424U 02022A   21044.92077854  .00000075  00000-0  26727-4 0  9998
2 27424  98.2179 348.0419 0001212  20.9513  53.3492 14.57109127999035
CZ-4B R/B               
1 27432U 02024C   21044.89831025 -.00000041  00000-0  26957-5 0  9993
2 27432  99.0902  57.2066 0049905 214.4253 208.3381 14.14103977967771
MIDORI II (ADEOS-II)    
1 27597U 02056A   21044.87133212  .00000025  00000-0  27781-4 0  9997
2 27597  98.5513 352.7507 0001575  47.1810 312.9503 14.27483861946254
H-2A R/B                
1 27601U 02056E   21044.94102088 -.00000090  00000-0 -17513-4 0  9994
2 27601  98.2027  73.9560 0071010 278.2435 144.5441 14.31991659949256
CZ-4B R/B               
1 28059U 03049C   21044.75320857  .00000014  00000-0  15086-4 0  9997
2 28059  98.4921 330.0224 0051095 120.2156 240.4113 14.52634540917860
CZ-2C R/B               
1 28222U 04012C   21044.90804321  .00000507  00000-0  34090-4 0  9993
2 28222  97.7118  14.6114 0045362 284.6084 132.3354 15.10701372922449
SL-16 R/B               
1 28353U 04021B   21044.75214217  .00000191  00000-0  12515-3 0  9996
2 28353  71.0019 153.2512 0006522 311.9150  48.1415 14.14241484861253
CZ-4B R/B               
1 28415U 04035C   21044.87213030  .00000567  00000-0  41149-4 0  9998
2 28415  97.5832  89.3719 0050015 248.4643 111.1249 15.07022087899990
CZ-2C R/B               
1 28480U 04046B   21044.90543755  .00000025  00000-0  24860-4 0  9996
2 28480  98.0578  66.8298 0140975 229.6091 193.4526 14.25740181844824
ARIANE 5 R/B            
1 28499U 04049H   21044.87212441  .00000095  00000-0  19152-4 0  9995
2 28499  98.0613 153.5620 0091414 212.3685 260.4405 14.80088334871803
CZ-2D R/B               
1 28738U 05024B   21044.91442556  .00000353  00000-0  23996-4 0  9990
2 28738  97.3686  65.2795 0013402  71.9172 288.3518 15.12267177857891
SUZAKU (ASTRO-EII)      
1 28773U 05025A   21044.90365453  .00001035  00000-0  45249-4 0  9992
2 28773  31.3806 246.1508 0004297 119.6247 240.4828 15.18083018860678
ALOS (DAICHI)           
1 28931U 06002A   21044.95496803  .00000136  00000-0  35304-4 0  9995
2 28931  97.8721  25.2033 0002359  61.3568 298.7872 14.62796799803006
H-2A R/B                
1 28932U 06002B   21044.95758270  .00000392  00000-0  42125-4 0  9998
2 28932  98.3319  54.7812 0087179 251.2966 128.0334 14.92441955817167
AKARI (ASTRO-F)         
1 28939U 06005A   21044.90568048  .00002653  00000-0  69326-4 0  9999
2 28939  98.2491  53.3337 0089130 197.7935 162.0180 15.35951752817931
RESURS-DK 1             
1 29228U 06021A   21044.93387010  .00000075  00000-0  12911-4 0  9994
2 29228  69.9355 293.2172 0001462  97.6301 262.5026 15.02641540808992
GENESIS 1               
1 29252U 06029A   21044.88115117  .00000383  00000-0  28439-4 0  9994
2 29252  64.5206 231.7703 0028465 336.7005  23.2826 15.18468881804754
CZ-4B R/B               
1 29507U 06046C   21044.47713768  .00000526  00000-0  45420-4 0  9995
2 29507  97.7182  71.0952 0049154  72.1757 288.4820 15.00647846781510
CZ-2C R/B               
1 31114U 07010B   21044.82340025 -.00000026  00000-0  64120-5 0  9990
2 31114  98.2377 247.1746 0058604 283.7360  75.7298 14.19346884717248
COSMO-SKYMED 1          
1 31598U 07023A   21045.16545571 -.00000006  00000-0  57669-5 0  9999
2 31598  97.8837 230.8109 0001371  93.4285 266.7066 14.82151448740637
GENESIS 2               
1 31789U 07028A   21044.90706001  .00000400  00000-0  29918-4 0  9996
2 31789  64.5058 273.7911 0026156 215.0468 144.8934 15.17609235751818
COSMOS 2428             
1 31792U 07029A   21045.16256629 -.00000034  00000-0  77516-5 0  9998
2 31792  70.8920 125.1096 0004297  61.0808 299.0743 14.12236805702992
SL-16 R/B               
1 31793U 07029B   21044.87867475 -.00000112  00000-0 -33369-4 0  9998
2 31793  70.9746  99.2151 0002783 267.4546 265.5877 14.14436854703795
KORONAS-FOTON           
1 33504U 09003A   21044.92223787  .00000236  00000-0  10584-4 0  9991
2 33504  82.4444 342.5193 0019467 158.9465 201.2573 15.15866811663956
H-2A R/B                
1 38341U 12025E   21044.75083457  .00000248  00000-0  36453-4 0  9998
2 38341  98.5203 221.7966 0055565 175.6907 184.4796 14.84166356473155
CUSAT 2 & FALCON 9 R/B  
1 39271U 13055G   21045.14592299  .00005506  00000-0  12909-3 0  9999
2 39271  80.9676   6.4731 0576923 161.7777 200.5078 14.50953381385747
SL-4 R/B                
1 39679U 14021B   21044.50424852  .00000177  00000-0  26853-4 0  9996
2 39679  51.6156  68.5240 0171265  61.3470 300.4603 15.06749629375367
ALOS-2                  
1 39766U 14029A   21045.09571291  .00000073  00000-0  16630-4 0  9993
2 39766  97.9200 144.2355 0001498  97.1494 262.9889 14.79473204363423
CZ-2C R/B               
1 40306U 14071B   21044.82812695  .00005533  00000-0  11108-3 0  9998
2 40306  97.3565   0.1640 0015046  13.3066 346.8577 15.46984116351134
SL-27 R/B               
1 40354U 14084B   21044.92925790  .00000824  00000-0  20968-4 0  9990
2 40354  74.7357 248.3450 0037781 313.8429  45.9662 15.40773946345317
YAOGAN 29               
1 41038U 15069A   21045.06356960  .00000013  00000-0  86177-5 0  9992
2 41038  98.0301  38.9011 0001492 121.9867 238.1491 14.80485802282023
ASTRO-H (HITOMI)        
1 41337U 16012A   21044.96113689  .00000238  00000-0  12291-4 0  9994
2 41337  31.0050 278.3991 0012458 297.4097  62.5270 14.98783643273766
HXMT (HUIYAN)           
1 42758U 17034A   21045.13722259  .00000239  00000-0  28474-4 0  9997
2 42758  43.0166 149.9461 0007995 108.9195 317.1789 15.09060486202385
CZ-2C R/B               
1 43521U 18054D   21044.62628408  .00000472  00000-0  27727-4 0  9992
2 43521  35.1529 133.3467 0081557  85.2928 275.7094 15.11312298145657
AEOLUS                  
1 43600U 18066A   21045.14185092  .00001890  00000-0  80374-5 0  9991
2 43600  96.7182  53.8697 0006722  93.7982 266.4059 15.86620715143697
SAOCOM 1A               
1 43641U 18076A   21045.10635639  .00000025  00000-0  96398-5 0  9992
2 43641  97.8867 233.7783 0001450  82.7138 277.4243 14.82158124127394
CREW DRAGON DEMO-1 DEB  
1 44064U 19011B   21044.69519874  .00043829  00000-0  27427-3 0  9991
2 44064  51.6270 162.2144 0003121 269.0224  91.0419 15.76363671110790
CZ-2F R/B               
1 46390U 20063B   21044.90630753  .00040522  00000-0  15112-3 0  9993
2 46390  50.2002 275.3008 0009892 281.2387  78.7485 15.87444751 25740
2020-063G               
1 46395U 20063G   21044.93084658  .00015329  00000-0  77494-4 0  9997
2 46395  50.2038 278.6789 0009485 277.5450  82.4455 15.81730268 25691
